{
  "type": "FeatureCollection",
  "features": [
    {
      "type": "Feature",
      "properties": {
        "norad_id": 30931,
        "name": "FENGYUN 1C DEB",
        "group": "fengyun-1c-debris",
        "lat": 12.730767849101854,
        "lon": -132.05236843143106,
        "alt_km": 932.655971668828,
        "timestamp": "2025-12-14T07:33:19.757545+00:00",
        "meta_object_name": "FENGYUN 1C DEB",
        "meta_object_id": "1999-025AZV",
        "meta_epoch": "2025-12-12T10:18:52.413120",
        "meta_mean_motion": 14.01511903,
        "meta_eccentricity": 0.00932012,
        "meta_inclination": 99.1725,
        "meta_ra_of_asc_node": 43.9614,
        "meta_arg_of_pericenter": 42.3334,
        "meta_mean_anomaly": 338.1565,
        "meta_ephemeris_type": 0,
        "meta_classification_type": "U",
        "meta_norad_cat_id": 30931,
        "meta_element_set_no": 999,
        "meta_rev_at_epoch": 95921,
        "meta_bstar": 0.00078478041,
        "meta_mean_motion_dot": 1.187e-05,
        "meta_mean_motion_ddot": 0,
        "tle_line1": "1 30931U 99025AZV 25346.42977330  .00001187  00000+0  78478-3 0  9999",
        "tle_line2": "2 30931  99.1725  43.9614 0093201  42.3334 338.1565 14.01511903959214"
      },
      "geometry": {
        "type": "Point",
        "coordinates": [
          -132.05236843143106,
          12.730767849101854
        ]
      }
    },
    {
      "type": "Feature",
      "properties": {
        "norad_id": 30932,
        "name": "FENGYUN 1C DEB",
        "group": "fengyun-1c-debris",
        "lat": -57.26010801546433,
        "lon": 87.12824757661873,
        "alt_km": 782.8381579723991,
        "timestamp": "2025-12-14T07:33:19.757555+00:00",
        "meta_object_name": "FENGYUN 1C DEB",
        "meta_object_id": "1999-025AZW",
        "meta_epoch": "2025-12-11T06:04:03.291168",
        "meta_mean_motion": 14.2678024,
        "meta_eccentricity": 0.00584099,
        "meta_inclination": 98.9068,
        "meta_ra_of_asc_node": 278.1292,
        "meta_arg_of_pericenter": 298.3506,
        "meta_mean_anomaly": 61.1791,
        "meta_ephemeris_type": 0,
        "meta_classification_type": "U",
        "meta_norad_cat_id": 30932,
        "meta_element_set_no": 999,
        "meta_rev_at_epoch": 96373,
        "meta_bstar": 0.005899767,
        "meta_mean_motion_dot": 0.00014536,
        "meta_mean_motion_ddot": 0,
        "tle_line1": "1 30932U 99025AZW 25345.25281587  .00014536  00000+0  58998-2 0  9998",
        "tle_line2": "2 30932  98.9068 278.1292 0058409 298.3506  61.1791 14.26780240963736"
      },
      "geometry": {
        "type": "Point",
        "coordinates": [
          87.12824757661873,
          -57.26010801546433
        ]
      }
    },
    {
      "type": "Feature",
      "properties": {
        "norad_id": 30933,
        "name": "FENGYUN 1C DEB",
        "group": "fengyun-1c-debris",
        "lat": -10.995201527870853,
        "lon": 149.11200172264947,
        "alt_km": 806.9964770361576,
        "timestamp": "2025-12-14T07:33:19.757569+00:00",
        "meta_object_name": "FENGYUN 1C DEB",
        "meta_object_id": "1999-025AZX",
        "meta_epoch": "2025-12-12T21:30:24.585696",
        "meta_mean_motion": 14.3649909,
        "meta_eccentricity": 0.00768676,
        "meta_inclination": 99.0482,
        "meta_ra_of_asc_node": 329.3965,
        "meta_arg_of_pericenter": 322.2947,
        "meta_mean_anomaly": 96.7893,
        "meta_ephemeris_type": 0,
        "meta_classification_type": "U",
        "meta_norad_cat_id": 30933,
        "meta_element_set_no": 999,
        "meta_rev_at_epoch": 95874,
        "meta_bstar": 0.0074493408,
        "meta_mean_motion_dot": 0.00022638,
        "meta_mean_motion_ddot": 0,
        "tle_line1": "1 30933U 99025AZX 25346.89611789  .00022638  00000+0  74493-2 0  9991",
        "tle_line2": "2 30933  99.0482 329.3965 0076867 322.2947  96.7893 14.36499090958742"
      },
      "geometry": {
        "type": "Point",
        "coordinates": [
          149.11200172264947,
          -10.995201527870853
        ]
      }
    },
    {
      "type": "Feature",
      "properties": {
        "norad_id": 30934,
        "name": "FENGYUN 1C DEB",
        "group": "fengyun-1c-debris",
        "lat": -20.7389005883953,
        "lon": -131.53174159813787,
        "alt_km": 1117.8778450765167,
        "timestamp": "2025-12-14T07:33:19.757579+00:00",
        "meta_object_name": "FENGYUN 1C DEB",
        "meta_object_id": "1999-025AZY",
        "meta_epoch": "2025-12-13T06:41:49.727328",
        "meta_mean_motion": 13.46745261,
        "meta_eccentricity": 0.03406314,
        "meta_inclination": 98.7654,
        "meta_ra_of_asc_node": 224.2106,
        "meta_arg_of_pericenter": 80.1327,
        "meta_mean_anomaly": 283.8081,
        "meta_ephemeris_type": 0,
        "meta_classification_type": "U",
        "meta_norad_cat_id": 30934,
        "meta_element_set_no": 999,
        "meta_rev_at_epoch": 91715,
        "meta_bstar": 0.0026420745,
        "meta_mean_motion_dot": 2.24e-05,
        "meta_mean_motion_ddot": 0,
        "tle_line1": "1 30934U 99025AZY 25347.27904777  .00002240  00000+0  26421-2 0  9992",
        "tle_line2": "2 30934  98.7654 224.2106 0340631  80.1327 283.8081 13.46745261917157"
      },
      "geometry": {
        "type": "Point",
        "coordinates": [
          -131.53174159813787,
          -20.7389005883953
        ]
      }
    },
    {
      "type": "Feature",
      "properties": {
        "norad_id": 30936,
        "name": "FENGYUN 1C DEB",
        "group": "fengyun-1c-debris",
        "lat": 81.3820948892066,
        "lon": -66.04866362676555,
        "alt_km": 838.0999210449409,
        "timestamp": "2025-12-14T07:33:19.757589+00:00",
        "meta_object_name": "FENGYUN 1C DEB",
        "meta_object_id": "1999-025BAA",
        "meta_epoch": "2025-12-13T14:51:51.770880",
        "meta_mean_motion": 14.23375578,
        "meta_eccentricity": 0.00459339,
        "meta_inclination": 98.5818,
        "meta_ra_of_asc_node": 18.3988,
        "meta_arg_of_pericenter": 288.1413,
        "meta_mean_anomaly": 199.3395,
        "meta_ephemeris_type": 0,
        "meta_classification_type": "U",
        "meta_norad_cat_id": 30936,
        "meta_element_set_no": 999,
        "meta_rev_at_epoch": 97145,
        "meta_bstar": 0.00068628466,
        "meta_mean_motion_dot": 1.531e-05,
        "meta_mean_motion_ddot": 0,
        "tle_line1": "1 30936U 99025BAA 25347.61934920  .00001531  00000+0  68628-3 0  9993",
        "tle_line2": "2 30936  98.5818  18.3988 0045933 288.1413 199.3395 14.23375578971450"
      },
      "geometry": {
        "type": "Point",
        "coordinates": [
          -66.04866362676555,
          81.3820948892066
        ]
      }
    },
    {
      "type": "Feature",
      "properties": {
        "norad_id": 30937,
        "name": "FENGYUN 1C DEB",
        "group": "fengyun-1c-debris",
        "lat": 55.40350667466585,
        "lon": -125.92750255134342,
        "alt_km": 888.5879283857475,
        "timestamp": "2025-12-14T07:33:19.757599+00:00",
        "meta_object_name": "FENGYUN 1C DEB",
        "meta_object_id": "1999-025BAB",
        "meta_epoch": "2025-12-13T16:05:27.408768",
        "meta_mean_motion": 13.95584873,
        "meta_eccentricity": 0.00757893,
        "meta_inclination": 99.0887,
        "meta_ra_of_asc_node": 40.0184,
        "meta_arg_of_pericenter": 50.7821,
        "meta_mean_anomaly": 76.298,
        "meta_ephemeris_type": 0,
        "meta_classification_type": "U",
        "meta_norad_cat_id": 30937,
        "meta_element_set_no": 999,
        "meta_rev_at_epoch": 95729,
        "meta_bstar": 0.00023153407,
        "meta_mean_motion_dot": 2.79e-06,
        "meta_mean_motion_ddot": 0,
        "tle_line1": "1 30937U 99025BAB 25347.67045612  .00000279  00000+0  23153-3 0  9993",
        "tle_line2": "2 30937  99.0887  40.0184 0075789  50.7821  76.2980 13.95584873957298"
      },
      "geometry": {
        "type": "Point",
        "coordinates": [
          -125.92750255134342,
          55.40350667466585
        ]
      }
    },
    {
      "type": "Feature",
      "properties": {
        "norad_id": 30938,
        "name": "FENGYUN 1C DEB",
        "group": "fengyun-1c-debris",
        "lat": -17.90708270486823,
        "lon": 4.560722049420206,
        "alt_km": 797.8660338467571,
        "timestamp": "2025-12-14T07:33:19.757612+00:00",
        "meta_object_name": "FENGYUN 1C DEB",
        "meta_object_id": "1999-025BAC",
        "meta_epoch": "2025-12-13T13:35:48.616224",
        "meta_mean_motion": 14.19820827,
        "meta_eccentricity": 0.00458789,
        "meta_inclination": 98.5909,
        "meta_ra_of_asc_node": 1.0347,
        "meta_arg_of_pericenter": 341.3444,
        "meta_mean_anomaly": 138.0783,
        "meta_ephemeris_type": 0,
        "meta_classification_type": "U",
        "meta_norad_cat_id": 30938,
        "meta_element_set_no": 999,
        "meta_rev_at_epoch": 97131,
        "meta_bstar": 0.00049398473,
        "meta_mean_motion_dot": 1.015e-05,
        "meta_mean_motion_ddot": 0,
        "tle_line1": "1 30938U 99025BAC 25347.56653491  .00001015  00000+0  49398-3 0  9990",
        "tle_line2": "2 30938  98.5909   1.0347 0045878 341.3444 138.0783 14.19820827971318"
      },
      "geometry": {
        "type": "Point",
        "coordinates": [
          4.560722049420206,
          -17.90708270486823
        ]
      }
    }
  ]
}